{
  "links": {
    "self": "http://api.nasa.gov/neo/rest/v1/neo/54550502?api_key=3hMFcVGG3bILl6a9mBxBdjkWU71phGNDfEmA4fl4"
  },
  "id": "54550502",
  "neo_reference_id": "54550502",
  "name": "(2025 TL)",
  "designation": "2025 TL",
  "nasa_jpl_url": "https://ssd.jpl.nasa.gov/tools/sbdb_lookup.html#/?sstr=54550502",
  "absolute_magnitude_h": 23.315,
  "estimated_diameter": {
    "kilometers": {
      "estimated_diameter_min": 0.0577503973,
      "estimated_diameter_max": 0.1291338142
    },
    "meters": {
      "estimated_diameter_min": 57.7503973342,
      "estimated_diameter_max": 129.1338141669
    },
    "miles": {
      "estimated_diameter_min": 0.0358844221,
      "estimated_diameter_max": 0.0802400072
    },
    "feet": {
      "estimated_diameter_min": 189.4698135899,
      "estimated_diameter_max": 423.6673828713
    }
  },
  "is_potentially_hazardous_asteroid": false,
  "close_approach_data": [
    {
      "close_approach_date": "2025-10-05",
      "close_approach_date_full": "2025-Oct-05 19:52",
      "epoch_date_close_approach": 1759693920000,
      "relative_velocity": {
        "kilometers_per_second": "17.9779723055",
        "kilometers_per_hour": "64720.7002998655",
        "miles_per_hour": "40214.9262502137"
      },
      "miss_distance": {
        "astronomical": "0.0296419052",
        "lunar": "11.5307011228",
        "kilometers": "4434365.880661924",
        "miles": "2755387.1892415912"
      },
      "orbiting_body": "Earth"
    }
  ],
  "orbital_data": {
    "orbit_id": "2",
    "orbit_determination_date": "2025-10-03 06:55:43",
    "first_observation_date": "2025-10-01",
    "last_observation_date": "2025-10-03",
    "data_arc_in_days": 2,
    "observations_used": 32,
    "orbit_uncertainty": "8",
    "minimum_orbit_intersection": ".0238459",
    "jupiter_tisserand_invariant": "4.210",
    "epoch_osculation": "2460950.5",
    "eccentricity": ".3654739530004447",
    "semi_major_axis": "1.559928641556371",
    "inclination": "30.90848566956222",
    "ascending_node_longitude": "12.86253895438235",
    "orbital_period": "711.6320922371092",
    "perihelion_distance": ".9898153545281503",
    "perihelion_argument": "29.01621833529068",
    "aphelion_distance": "2.130041928584592",
    "perihelion_time": "2460979.045507623798",
    "mean_anomaly": "345.5594163660297",
    "mean_motion": ".5058793777389838",
    "equinox": "J2000",
    "orbit_class": {
      "orbit_class_type": "APO",
      "orbit_class_description": "Near-Earth asteroid orbits which cross the Earth\u2019s orbit similar to that of 1862 Apollo",
      "orbit_class_range": "a (semi-major axis) > 1.0 AU; q (perihelion) < 1.017 AU"
    }
  },
  "is_sentry_object": false
}